{
  "links" : {
    "next" : "https://api.nasa.gov/neo/rest/v1/feed?start_date=2002-10-09&end_date=2002-10-09&detailed=true&api_key=t0TVs3DtDT2H8Oy2Zy8m2eVrNsAVKAexjcZXUckd",
    "prev" : "https://api.nasa.gov/neo/rest/v1/feed?start_date=2002-10-07&end_date=2002-10-07&detailed=true&api_key=t0TVs3DtDT2H8Oy2Zy8m2eVrNsAVKAexjcZXUckd",
    "self" : "https://api.nasa.gov/neo/rest/v1/feed?start_date=2002-10-08&end_date=2002-10-08&detailed=true&api_key=t0TVs3DtDT2H8Oy2Zy8m2eVrNsAVKAexjcZXUckd"
  },
  "element_count" : 7,
  "near_earth_objects" : {
    "2002-10-08" : [ {
      "links" : {
        "self" : "https://api.nasa.gov/neo/rest/v1/neo/3767262?api_key=t0TVs3DtDT2H8Oy2Zy8m2eVrNsAVKAexjcZXUckd"
      },
      "neo_reference_id" : "3767262",
      "name" : "(2017 BL32)",
      "nasa_jpl_url" : "http://ssd.jpl.nasa.gov/sbdb.cgi?sstr=3767262",
      "absolute_magnitude_h" : 20.5,
      "estimated_diameter" : {
        "kilometers" : {
          "estimated_diameter_min" : 0.2111324448,
          "estimated_diameter_max" : 0.4721064988
        },
        "meters" : {
          "estimated_diameter_min" : 211.1324447897,
          "estimated_diameter_max" : 472.1064988055
        },
        "miles" : {
          "estimated_diameter_min" : 0.1311915784,
          "estimated_diameter_max" : 0.2933532873
        },
        "feet" : {
          "estimated_diameter_min" : 692.6917701639,
          "estimated_diameter_max" : 1548.9058855411
        }
      },
      "is_potentially_hazardous_asteroid" : false,
      "close_approach_data" : [ {
        "close_approach_date" : "2002-10-08",
        "epoch_date_close_approach" : 1034060400000,
        "relative_velocity" : {
          "kilometers_per_second" : "17.4984450049",
          "kilometers_per_hour" : "62994.4020175223",
          "miles_per_hour" : "39142.2716313877"
        },
        "miss_distance" : {
          "astronomical" : "0.2744151446",
          "lunar" : "106.7474899292",
          "kilometers" : "41051920",
          "miles" : "25508480"
        },
        "orbiting_body" : "Earth"
      } ],
      "orbital_data" : {
        "orbit_id" : "15",
        "orbit_determination_date" : "2017-06-02 06:17:00",
        "orbit_uncertainty" : "6",
        "minimum_orbit_intersection" : ".15509",
        "jupiter_tisserand_invariant" : "4.478",
        "epoch_osculation" : "2458000.5",
        "eccentricity" : ".6979313825854672",
        "semi_major_axis" : "1.386988030759319",
        "inclination" : "10.9333537172155",
        "ascending_node_longitude" : "280.987592867235",
        "orbital_period" : "596.6333106106565",
        "perihelion_distance" : ".418965556821973",
        "perihelion_argument" : "349.327756824438",
        "aphelion_distance" : "2.355010504696665",
        "perihelion_time" : "2457873.302994035455",
        "mean_anomaly" : "76.74885282615045",
        "mean_motion" : ".6033856869834147",
        "equinox" : "J2000"
      }
    } ]
  }
}